IRIDIUM 26              
1 24903U 97043A   26015.46325822  .00000305  00000+0  95736-4 0  9998
2 24903  86.3944  21.3819 0002411  91.0257 269.1217 14.37358091487233
IRIDIUM 22              
1 24907U 97043E   26015.98798448  .00000257  00000+0  81600-4 0  9998
2 24907  86.3945  24.8838 0002260  87.1564 272.9892 14.36148254487313
DUMMY MASS 1            
1 24925U 97048A   26015.98654941  .00000279  00000+0  27790-4 0  9996
2 24925  86.3317  36.8502 0008914 106.0635 254.1572 14.87214300536751
DUMMY MASS 2            
1 24926U 97048B   26015.98426789  .00000277  00000+0  27752-4 0  9990
2 24926  86.3318  38.4984 0009475 115.7600 244.4603 14.86964648536525
IRIDIUM 29              
1 24944U 97051A   26015.65458645  .00000250  00000+0  78060-4 0  9993
2 24944  86.3922  54.6967 0002065  89.0361 271.1073 14.36691225483771
IRIDIUM 33              
1 24946U 97051C   26015.59436438  .00000224  00000+0  71490-4 0  9995
2 24946  86.3838  54.0043 0010006 102.0450 258.1868 14.35062724483207
IRIDIUM 28              
1 24948U 97051E   26015.63358243  .00000259  00000+0  79695-4 0  9992
2 24948  86.3927  52.1000 0002756  94.6176 265.5336 14.37592176484365
IRIDIUM 36              
1 24967U 97056C   26015.70300654  .00000271  00000+0  83472-4 0  9991
2 24967  86.3943  83.7020 0002431  91.3519 268.7958 14.37817962482750
